[{"OBJECT_NAME":"QIANFAN-5","OBJECT_ID":"2024-140E","EPOCH":"2026-03-09T22:15:32.408352","MEAN_MOTION":13.51002562,"ECCENTRICITY":0.00142592,"INCLINATION":88.9687,"RA_OF_ASC_NODE":290.2392,"ARG_OF_PERICENTER":325.4546,"MEAN_ANOMALY":34.5678,"EPHEMERIS_TYPE":0,"CLASSIFICATION_TYPE":"U","NORAD_CAT_ID":60383,"ELEMENT_SET_NO":999,"REV_AT_EPOCH":7907,"BSTAR":9.3498579e-5,"MEAN_MOTION_DOT":7.2e-7,"MEAN_MOTION_DDOT":0},{"OBJECT_NAME":"THORAD AGENA D DEB","OBJECT_ID":"1970-025QZ","EPOCH":"2026-03-09T03:16:42.838752","MEAN_MOTION":13.56559418,"ECCENTRICITY":0.0026924,"INCLINATION":99.9726,"RA_OF_ASC_NODE":136.3508,"ARG_OF_PERICENTER":24.1912,"MEAN_ANOMALY":336.0483,"EPHEMERIS_TYPE":0,"CLASSIFICATION_TYPE":"U","NORAD_CAT_ID":42495,"ELEMENT_SET_NO":999,"REV_AT_EPOCH":60824,"BSTAR":0.00061192878,"MEAN_MOTION_DOT":3.87e-6,"MEAN_MOTION_DDOT":0}]
